{
  "type": "FeatureCollection",
  "features": [
    {
      "type": "Feature",
      "properties": {
        "norad_id": 38833,
        "name": "GPS BIIF-3  (PRN 24)",
        "group": "gps-ops",
        "lat": -35.327724099433844,
        "lon": 119.59836673475614,
        "alt_km": 20338.79991753298,
        "timestamp": "2025-12-13T18:50:04.689361+00:00",
        "meta_object_name": "GPS BIIF-3  (PRN 24)",
        "meta_object_id": "2012-053A",
        "meta_epoch": "2025-12-12T20:25:41.380896",
        "meta_mean_motion": 2.00565025,
        "meta_eccentricity": 0.01758679,
        "meta_inclination": 53.5578,
        "meta_ra_of_asc_node": 151.234,
        "meta_arg_of_pericenter": 63.9869,
        "meta_mean_anomaly": 297.8174,
        "meta_ephemeris_type": 0,
        "meta_classification_type": "U",
        "meta_norad_cat_id": 38833,
        "meta_element_set_no": 999,
        "meta_rev_at_epoch": 9570,
        "meta_bstar": 0,
        "meta_mean_motion_dot": 9.1e-07,
        "meta_mean_motion_ddot": 0,
        "tle_line1": "1 38833U 12053A   25346.85117339  .00000091  00000+0  00000+0 0  9991",
        "tle_line2": "2 38833  53.5578 151.2340 0175867  63.9869 297.8174  2.00565025 95705"
      },
      "geometry": {
        "type": "Point",
        "coordinates": [
          119.59836673475614,
          -35.327724099433844
        ]
      }
    },
    {
      "type": "Feature",
      "properties": {
        "norad_id": 39166,
        "name": "GPS BIIF-4  (PRN 27)",
        "group": "gps-ops",
        "lat": 41.076894858872926,
        "lon": -45.326524086502424,
        "alt_km": 19812.745555436257,
        "timestamp": "2025-12-13T18:50:04.689373+00:00",
        "meta_object_name": "GPS BIIF-4  (PRN 27)",
        "meta_object_id": "2013-023A",
        "meta_epoch": "2025-12-12T05:11:52.937952",
        "meta_mean_motion": 2.0056516,
        "meta_eccentricity": 0.0137857,
        "meta_inclination": 54.6524,
        "meta_ra_of_asc_node": 276.5895,
        "meta_arg_of_pericenter": 48.604,
        "meta_mean_anomaly": 312.5852,
        "meta_ephemeris_type": 0,
        "meta_classification_type": "U",
        "meta_norad_cat_id": 39166,
        "meta_element_set_no": 999,
        "meta_rev_at_epoch": 9213,
        "meta_bstar": 0,
        "meta_mean_motion_dot": -7.4e-07,
        "meta_mean_motion_ddot": 0,
        "tle_line1": "1 39166U 13023A   25346.21658493 -.00000074  00000+0  00000+0 0  9992",
        "tle_line2": "2 39166  54.6524 276.5895 0137857  48.6040 312.5852  2.00565160 92134"
      },
      "geometry": {
        "type": "Point",
        "coordinates": [
          -45.326524086502424,
          41.076894858872926
        ]
      }
    },
    {
      "type": "Feature",
      "properties": {
        "norad_id": 39533,
        "name": "GPS BIIF-5  (PRN 30)",
        "group": "gps-ops",
        "lat": 41.80038807854946,
        "lon": -161.8961691039382,
        "alt_km": 20383.670105825488,
        "timestamp": "2025-12-13T18:50:04.689384+00:00",
        "meta_object_name": "GPS BIIF-5  (PRN 30)",
        "meta_object_id": "2014-008A",
        "meta_epoch": "2025-12-12T17:01:11.546688",
        "meta_mean_motion": 2.00574462,
        "meta_eccentricity": 0.00792236,
        "meta_inclination": 53.6311,
        "meta_ra_of_asc_node": 156.9259,
        "meta_arg_of_pericenter": 226.5032,
        "meta_mean_anomaly": 132.848,
        "meta_ephemeris_type": 0,
        "meta_classification_type": "U",
        "meta_norad_cat_id": 39533,
        "meta_element_set_no": 999,
        "meta_rev_at_epoch": 8594,
        "meta_bstar": 0,
        "meta_mean_motion_dot": 9.5e-07,
        "meta_mean_motion_ddot": 0,
        "tle_line1": "1 39533U 14008A   25346.70916142  .00000095  00000+0  00000+0 0  9998",
        "tle_line2": "2 39533  53.6311 156.9259 0079223 226.5032 132.8480  2.00574462 85946"
      },
      "geometry": {
        "type": "Point",
        "coordinates": [
          -161.8961691039382,
          41.80038807854946
        ]
      }
    },
    {
      "type": "Feature",
      "properties": {
        "norad_id": 39741,
        "name": "GPS BIIF-6  (PRN 06)",
        "group": "gps-ops",
        "lat": -25.781321991152545,
        "lon": 177.32610105718774,
        "alt_km": 20216.26769077987,
        "timestamp": "2025-12-13T18:50:04.689396+00:00",
        "meta_object_name": "GPS BIIF-6  (PRN 06)",
        "meta_object_id": "2014-026A",
        "meta_epoch": "2025-12-12T23:49:07.978944",
        "meta_mean_motion": 2.00561385,
        "meta_eccentricity": 0.00391904,
        "meta_inclination": 56.5834,
        "meta_ra_of_asc_node": 338.7665,
        "meta_arg_of_pericenter": 318.6983,
        "meta_mean_anomaly": 41.0184,
        "meta_ephemeris_type": 0,
        "meta_classification_type": "U",
        "meta_norad_cat_id": 39741,
        "meta_element_set_no": 999,
        "meta_rev_at_epoch": 8480,
        "meta_bstar": 0,
        "meta_mean_motion_dot": -8.6e-07,
        "meta_mean_motion_ddot": 0,
        "tle_line1": "1 39741U 14026A   25346.99245346 -.00000086  00000+0  00000+0 0  9992",
        "tle_line2": "2 39741  56.5834 338.7665 0039190 318.6983  41.0184  2.00561385 84803"
      },
      "geometry": {
        "type": "Point",
        "coordinates": [
          177.32610105718774,
          -25.781321991152545
        ]
      }
    },
    {
      "type": "Feature",
      "properties": {
        "norad_id": 40105,
        "name": "GPS BIIF-7  (PRN 09)",
        "group": "gps-ops",
        "lat": 24.65146771264402,
        "lon": -102.72052294907112,
        "alt_km": 20102.852958017997,
        "timestamp": "2025-12-13T18:50:04.689407+00:00",
        "meta_object_name": "GPS BIIF-7  (PRN 09)",
        "meta_object_id": "2014-045A",
        "meta_epoch": "2025-12-12T01:59:18.865536",
        "meta_mean_motion": 2.00572516,
        "meta_eccentricity": 0.00326941,
        "meta_inclination": 55.2287,
        "meta_ra_of_asc_node": 95.9251,
        "meta_arg_of_pericenter": 119.8618,
        "meta_mean_anomaly": 240.4523,
        "meta_ephemeris_type": 0,
        "meta_classification_type": "U",
        "meta_norad_cat_id": 40105,
        "meta_element_set_no": 999,
        "meta_rev_at_epoch": 8232,
        "meta_bstar": 0,
        "meta_mean_motion_dot": -9e-08,
        "meta_mean_motion_ddot": 0,
        "tle_line1": "1 40105U 14045A   25346.08285724 -.00000009  00000+0  00000+0 0  9998",
        "tle_line2": "2 40105  55.2287  95.9251 0032694 119.8618 240.4523  2.00572516 82323"
      },
      "geometry": {
        "type": "Point",
        "coordinates": [
          -102.72052294907112,
          24.65146771264402
        ]
      }
    },
    {
      "type": "Feature",
      "properties": {
        "norad_id": 40294,
        "name": "GPS BIIF-8  (PRN 03)",
        "group": "gps-ops",
        "lat": -45.19502871738113,
        "lon": -100.78939243735464,
        "alt_km": 20345.830503566387,
        "timestamp": "2025-12-13T18:50:04.689419+00:00",
        "meta_object_name": "GPS BIIF-8  (PRN 03)",
        "meta_object_id": "2014-068A",
        "meta_epoch": "2025-12-12T11:01:19.657056",
        "meta_mean_motion": 2.00564803,
        "meta_eccentricity": 0.00607742,
        "meta_inclination": 56.8576,
        "meta_ra_of_asc_node": 38.1568,
        "meta_arg_of_pericenter": 69.1795,
        "meta_mean_anomaly": 291.5212,
        "meta_ephemeris_type": 0,
        "meta_classification_type": "U",
        "meta_norad_cat_id": 40294,
        "meta_element_set_no": 999,
        "meta_rev_at_epoch": 8146,
        "meta_bstar": 0,
        "meta_mean_motion_dot": -9.5e-07,
        "meta_mean_motion_ddot": 0,
        "tle_line1": "1 40294U 14068A   25346.45925529 -.00000095  00000+0  00000+0 0  9992",
        "tle_line2": "2 40294  56.8576  38.1568 0060774  69.1795 291.5212  2.00564803 81469"
      },
      "geometry": {
        "type": "Point",
        "coordinates": [
          -100.78939243735464,
          -45.19502871738113
        ]
      }
    },
    {
      "type": "Feature",
      "properties": {
        "norad_id": 40534,
        "name": "GPS BIIF-9  (PRN 26)",
        "group": "gps-ops",
        "lat": 27.16548048023781,
        "lon": 9.275383494852028,
        "alt_km": 20257.860455274862,
        "timestamp": "2025-12-13T18:50:04.689445+00:00",
        "meta_object_name": "GPS BIIF-9  (PRN 26)",
        "meta_object_id": "2015-013A",
        "meta_epoch": "2025-12-11T14:12:34.875648",
        "meta_mean_motion": 2.00562655,
        "meta_eccentricity": 0.01070076,
        "meta_inclination": 53.1979,
        "meta_ra_of_asc_node": 211.9377,
        "meta_arg_of_pericenter": 38.4526,
        "meta_mean_anomaly": 322.3807,
        "meta_ephemeris_type": 0,
        "meta_classification_type": "U",
        "meta_norad_cat_id": 40534,
        "meta_element_set_no": 999,
        "meta_rev_at_epoch": 7806,
        "meta_bstar": 0,
        "meta_mean_motion_dot": 2.2e-07,
        "meta_mean_motion_ddot": 0,
        "tle_line1": "1 40534U 15013A   25345.59207032  .00000022  00000+0  00000+0 0  9995",
        "tle_line2": "2 40534  53.1979 211.9377 0107007  38.4526 322.3807  2.00562655 78062"
      },
      "geometry": {
        "type": "Point",
        "coordinates": [
          9.275383494852028,
          27.16548048023781
        ]
      }
    }
  ]
}